STARLINK-1975
1 27573C 21009AB  21325.16422397  .00009132  00000-0  61186-3 0  3258
2 27573  53.0520 217.4818 0001867  66.9183  47.9227 15.06389919    12
